[{"OBJECT_NAME":"KL-ALPHA B","OBJECT_ID":"2019-077B","EPOCH":"2026-03-09T22:53:20.656320","MEAN_MOTION":13.55991854,"ECCENTRICITY":0.00283835,"INCLINATION":88.9031,"RA_OF_ASC_NODE":231.1581,"ARG_OF_PERICENTER":80.1887,"MEAN_ANOMALY":280.247,"EPHEMERIS_TYPE":0,"CLASSIFICATION_TYPE":"U","NORAD_CAT_ID":44786,"ELEMENT_SET_NO":999,"REV_AT_EPOCH":31173,"BSTAR":0.00014525355,"MEAN_MOTION_DOT":1.14e-6,"MEAN_MOTION_DDOT":0},{"OBJECT_NAME":"QIANFAN-100","OBJECT_ID":"2025-233K","EPOCH":"2026-03-09T21:55:49.429920","MEAN_MOTION":13.51005946,"ECCENTRICITY":0.00019842,"INCLINATION":88.9954,"RA_OF_ASC_NODE":53.1359,"ARG_OF_PERICENTER":90.9885,"MEAN_ANOMALY":269.1493,"EPHEMERIS_TYPE":0,"CLASSIFICATION_TYPE":"U","NORAD_CAT_ID":66042,"ELEMENT_SET_NO":999,"REV_AT_EPOCH":1983,"BSTAR":6.7645203e-5,"MEAN_MOTION_DOT":5.6e-7,"MEAN_MOTION_DDOT":0}]
